SatCatId,ObjectName,LaunchYear,OrbitalPeriod,LaunchMass,StatusCode,Inclination,Status,UcsData,OrbitClassEstimated,LaunchSiteCountry,Owner,UseType,Purpose,LaunchVehicleClass,TLE1,TLE2,MeanMotion,Eccentricity,OrbitClass
46275,ATHENA,2020,93.55,138.0,+,97.24,Active,1,LEO,French Guiana,USA,Commercial,Communications,Vega,1 46275U 20061D   25221.42723003  .00010470  00000+0  27111-3 0  9992,2 46275  97.2398 283.2097 0002447  92.4464 267.7062 15.39233054274043,15.39233054,0.0002447,LEO
46276,UPMSAT-2,2020,91.26,60.0,+,97.24,Active,1,LEO,French Guiana,Spain,Civil,Technology Development,Vega,1 46276U 20061E   25221.00026806  .00126160  00000+0  74137-3 0  9998,2 46276  97.2391 297.7682 0001260 195.1489 164.9740 15.77887684274965,15.77887684,0.000126,LEO
46277,NEMO-HD,2020,93.69,65.0,+,97.24,Active,1,LEO,French Guiana,Slovenia,Civil,Earth Observation,Vega,1 46277U 20061F   25221.55852275  .00010324  00000+0  28761-3 0  9992,2 46277  97.2407 282.4235 0002780  94.6005 265.5557 15.36972002273994,15.36972002,0.000278,LEO
46278,GHGSAT-C1,2020,92.77,15.0,+,97.25,Active,1,LEO,French Guiana,Canada,Commercial,Earth Observation,Vega,1 46278U 20061G   25221.49745681  .00019717  00000+0  32657-3 0  9992,2 46278  97.2472 295.6107 0003596 109.1945 250.9697 15.52202058274856,15.52202058,0.0003596,LEO
46294,OSM-1 CICERO,2020,90.37,-1.0,+,97.31,Active,1,LEO,French Guiana,Spain,Commercial,Technology Development,Vega,1 46294U 20061Y   25220.78537872  .00316601  40522-4  88953-3 0  9992,2 46294  97.3072 301.1674 0005052 221.1994 138.8900 15.93528875274248,15.93528875,0.0005052,LEO
46320,NAPA-1,2020,93.37,10.0,+,97.3,Active,1,LEO,French Guiana,Thailand,Military,Earth Observation,Vega,1 46320U 20061BA  25221.57012399  .00012922  00000+0  30233-3 0  9991,2 46320  97.2963 286.7680 0002433  98.2235 261.9288 15.42265831273387,15.42265831,0.0002433,LEO
46325,STARLINK-1734,2020,93.45,260.0,P,53.03,Active,1,LEO,USA,USA,Commercial,Communications,Falcon,1 46325U 20062A   25221.58335648  .00085046  00000+0  20168-2 0  9995,2 46325  53.0308 177.2580 0002893 123.2688 281.0177 15.41021060  5880,15.4102106,0.0002893,LEO
46326,STARLINK-1654,2020,95.59,260.0,+,53.06,Active,1,LEO,USA,USA,Commercial,Communications,Falcon,1 46326U 20062B   25221.07511885 -.00000363  00000+0 -54617-5 0  9999,2 46326  53.0555 251.3248 0001300  91.6258 268.4880 15.06393846272266,15.06393846,0.00013,LEO
46328,STARLINK-1686,2020,95.59,260.0,+,53.05,Active,1,LEO,USA,USA,Commercial,Communications,Falcon,1 46328U 20062D   25221.01059673  .00002007  00000+0  15357-3 0  9998,2 46328  53.0544 231.3727 0001182  93.5344 266.5781 15.06406801272536,15.06406801,0.0001182,LEO
46329,STARLINK-1695,2020,95.59,260.0,+,53.05,Active,1,LEO,USA,USA,Commercial,Communications,Falcon,1 46329U 20062E   25221.30915005  .00001009  00000+0  86614-4 0  9997,2 46329  53.0535 230.0321 0001157  79.5230 280.5889 15.06398552272575,15.06398552,0.0001157,LEO
46330,STARLINK-1710,2020,94.27,260.0,P,53.05,Active,1,LEO,USA,USA,Commercial,Communications,Falcon,1 46330U 20062F   25221.01060121  .00050259  00000+0  18390-2 0  9992,2 46330  53.0537 226.2412 0005786   7.5447 352.5637 15.27571597272611,15.27571597,0.0005786,LEO
46331,STARLINK-1719,2020,95.59,260.0,+,53.05,Active,1,LEO,USA,USA,Commercial,Communications,Falcon,1 46331U 20062G   25221.46581991  .00001085  00000+0  91770-4 0  9993,2 46331  53.0544 249.3283 0001405  91.5183 268.5967 15.06389551272320,15.06389551,0.0001405,LEO
46333,STARLINK-1723,2020,95.59,260.0,+,53.05,Active,1,LEO,USA,USA,Commercial,Communications,Falcon,1 46333U 20062J   25221.35890796  .00001797  00000+0  13945-3 0  9996,2 46333  53.0539 249.8115 0001265  79.9008 280.2124 15.06413665272303,15.06413665,0.0001265,LEO
46335,STARLINK-1727,2020,95.59,260.0,+,53.05,Active,1,LEO,USA,USA,Commercial,Communications,Falcon,1 46335U 20062L   25221.45474142  .00000332  00000+0  41141-4 0  9996,2 46335  53.0543 249.3775 0000967  90.1372 269.9727 15.06397545272327,15.06397545,9.67e-05,LEO
46336,STARLINK-1738,2020,94.1,260.0,+,53.06,Active,1,LEO,USA,USA,Commercial,Communications,Falcon,1 46336U 20062M   25221.28590613  .00015936  00000+0  54737-3 0  9990,2 46336  53.0534 227.0547 0001054  60.5536 299.5569 15.30296662272619,15.30296662,0.0001054,LEO
46337,STARLINK-1750,2020,95.59,260.0,+,53.05,Active,1,LEO,USA,USA,Commercial,Communications,Falcon,1 46337U 20062N   25221.32757452  .00001406  00000+0  11325-3 0  9995,2 46337  53.0531 229.9519 0001255  75.7189 284.3939 15.06401628272584,15.06401628,0.0001255,LEO
46338,STARLINK-1752,2020,95.59,260.0,+,53.05,Active,1,LEO,USA,USA,Commercial,Communications,Falcon,1 46338U 20062P   25221.37734968  .00002567  00000+0  19108-3 0  9994,2 46338  53.0526 249.7296 0001059  63.9717 296.1381 15.06408022272306,15.06408022,0.0001059,LEO
46340,STARLINK-1759,2020,94.88,260.0,P,53.05,Active,1,LEO,USA,USA,Commercial,Communications,Falcon,1 46340U 20062R   25221.44083776  .00034678  00000+0  17050-2 0  9990,2 46340  53.0524 246.9038 0004970 354.1598   5.9337 15.17726261272348,15.17726261,0.000497,LEO
46342,STARLINK-1762,2020,95.59,260.0,+,53.05,Active,1,LEO,USA,USA,Commercial,Communications,Falcon,1 46342U 20062T   25221.46948337  .00001809  00000+0  14027-3 0  9999,2 46342  53.0546 249.3119 0001260  93.3685 266.7449 15.06402024272324,15.06402024,0.000126,LEO
46343,STARLINK-1764,2020,95.59,260.0,+,53.05,Active,1,LEO,USA,USA,Commercial,Communications,Falcon,1 46343U 20062U   25221.33125861  .00001003  00000+0  86228-4 0  9994,2 46343  53.0542 229.9324 0001203  84.3763 275.7363 15.06401141272589,15.06401141,0.0001203,LEO
46344,STARLINK-1765,2020,95.59,260.0,+,53.05,Active,1,LEO,USA,USA,Commercial,Communications,Falcon,1 46344U 20062V   25221.28334919  .00000977  00000+0  84448-4 0  9996,2 46344  53.0535 230.1462 0001178  88.7717 271.3407 15.06395599272576,15.06395599,0.0001178,LEO
46345,STARLINK-1767,2020,93.96,260.0,P,53.05,Active,1,LEO,USA,USA,Commercial,Communications,Falcon,1 46345U 20062W   25221.46948664  .00091295  00000+0  28234-2 0  9997,2 46345  53.0529 246.3535 0002129  24.5918 335.5183 15.32749815272362,15.32749815,0.0002129,LEO
46347,STARLINK-1547,2020,94.68,260.0,P,53.05,Active,1,LEO,USA,USA,Commercial,Communications,Falcon,1 46347U 20062Y   25221.20479385  .00051198  00000+0  22829-2 0  9992,2 46347  53.0488 201.6035 0004855  31.7413 328.3874 15.20925715272959,15.20925715,0.0004855,LEO
46348,STARLINK-1553,2020,94.71,260.0,P,53.05,Active,1,LEO,USA,USA,Commercial,Communications,Falcon,1 46348U 20062Z   25221.35501926  .00043468  00000+0  19728-2 0  9991,2 46348  53.0480 214.4439 0002142 136.7332 223.3832 15.20400175272805,15.20400175,0.0002142,LEO
46349,STARLINK-1575,2020,94.35,260.0,P,53.05,Active,1,LEO,USA,USA,Commercial,Communications,Falcon,1 46349U 20062AA  25221.35033911  .00059120  00000+0  22471-2 0  9997,2 46349  53.0451 199.9334 0003999  27.9107 332.2104 15.26247181273004,15.26247181,0.0003999,LEO
46351,STARLINK-1646,2020,95.59,260.0,+,53.05,Active,1,LEO,USA,USA,Commercial,Communications,Falcon,1 46351U 20062AC  25220.72306559  .00003708  00000+0  26760-3 0  9998,2 46351  53.0538 232.6643 0001247 102.9010 257.2119 15.06416975272505,15.06416975,0.0001247,LEO
46352,STARLINK-1653,2020,95.59,260.0,+,53.05,Active,1,LEO,USA,USA,Commercial,Communications,Falcon,1 46352U 20062AD  25221.56715427  .00001530  00000+0  12154-3 0  9993,2 46352  53.0538 228.8729 0001134  79.8366 280.2751 15.06406037272628,15.06406037,0.0001134,LEO
46353,STARLINK-1656,2020,95.59,260.0,+,53.05,Active,1,LEO,USA,USA,Commercial,Communications,Falcon,1 46353U 20062AE  25221.36627661  .00000943  00000+0  82198-4 0  9997,2 46353  53.0544 249.7773 0001148  82.7296 277.3824 15.06402068272300,15.06402068,0.0001148,LEO
46354,STARLINK-1657,2020,95.59,260.0,+,53.05,Active,1,LEO,USA,USA,Commercial,Communications,Falcon,1 46354U 20062AF  25221.55425793  .00001472  00000+0  11770-3 0  9996,2 46354  53.0541 248.9331 0001236  73.9667 286.1458 15.06406796272337,15.06406796,0.0001236,LEO
46355,STARLINK-1661,2020,95.59,260.0,+,53.05,Active,1,LEO,USA,USA,Commercial,Communications,Falcon,1 46355U 20062AG  25221.46210920  .00000635  00000+0  61499-4 0  9995,2 46355  53.0547 249.3466 0001307  85.6632 274.4506 15.06400974272324,15.06400974,0.0001307,LEO
46356,STARLINK-1665,2020,95.59,260.0,+,53.05,Active,1,LEO,USA,USA,Commercial,Communications,Falcon,1 46356U 20062AH  25221.34416706  .00001402  00000+0  11299-3 0  9998,2 46356  53.0544 249.9146 0001234  89.9424 270.1706 15.06401291272304,15.06401291,0.0001234,LEO
46357,STARLINK-1666,2020,95.59,260.0,+,53.05,Active,1,LEO,USA,USA,Commercial,Communications,Falcon,1 46357U 20062AJ  25221.40497354 -.00003268  00000+0 -20051-3 0  9994,2 46357  53.0527 229.6016 0001284  96.8585 263.2550 15.06410066272598,15.06410066,0.0001284,LEO
46359,STARLINK-1707,2020,94.69,260.0,P,53.05,Active,1,LEO,USA,USA,Commercial,Communications,Falcon,1 46359U 20062AL  25221.31577171  .00046573  00000+0  20889-2 0  9994,2 46359  53.0471 196.8186 0004249  36.1893 323.9389 15.20769869273043,15.20769869,0.0004249,LEO
46360,STARLINK-1713,2020,92.17,260.0,P,53.04,Active,1,LEO,USA,USA,Commercial,Communications,Falcon,1 46360U 20062AM  25221.58335648  .00154845  00000+0  16868-2 0  9990,2 46360  53.0420 171.6374 0010994  22.1799 114.1799 15.62352539  5982,15.62352539,0.0010994,LEO
46362,STARLINK-1726,2020,94.38,260.0,P,53.06,Active,1,LEO,USA,USA,Commercial,Communications,Falcon,1 46362U 20062AP  25220.66933672  .00046500  00000+0  18004-2 0  9993,2 46362  53.0602 202.9918 0005094  36.5075 323.6269 15.25737998273081,15.25737998,0.0005094,LEO
46366,STARLINK-1651,2020,95.59,260.0,+,53.05,Active,1,LEO,USA,USA,Commercial,Communications,Falcon,1 46366U 20062AT  25221.36121085  .00000597  00000+0  59007-4 0  9998,2 46366  53.0545 204.8004 0001439  83.4007 276.7146 15.06396377272939,15.06396377,0.0001439,LEO
